CUTE-1 (CO-55)          
1 27844U 03031E   26182.01649536  .00000326  00000+0  15975-3 0  9995
2 27844  98.6736 190.4014 0010358 139.6861 220.5088 14.24344253193646
CUBESAT XI-IV (CO-57)   
1 27848U 03031J   26182.01189682  .00000275  00000+0  13985-3 0  9992
2 27848  98.6768 190.0986 0009846 157.0958 203.0662 14.23628222193341
CUBESAT XI-V            
1 28895U 05043F   26181.38022833  .00001474  00000+0  23930-3 0  9996
2 28895  98.2997 337.2799 0014555 159.1785 201.0018 14.72666866103697
CUTE-1.7+APD II (CO-65) 
1 32785U 08021C   26182.16924524  .00007155  00000+0  44910-3 0  9996
2 32785  97.8277 163.8799 0008315 352.8809   7.2299 15.09584995987303
CANX-2                  
1 32790U 08021H   26181.91197402  .00003929  00000+0  27592-3 0  9993
2 32790  97.8633 161.9575 0010260   7.4385 352.6991 15.05711696986873
SEEDS II (CO-66)        
1 32791U 08021J   26181.97379828  .00021117  00000+0  65942-3 0  9994
2 32791  97.7516 180.5337 0001255 192.0562 168.0649 15.33219425989403
SWISSCUBE               
1 35932U 09051B   26182.12570260  .00001125  00000+0  23153-3 0  9994
2 35932  98.4025  90.2564 0006978 158.3297 201.8200 14.62508299891190
BEESAT-1                
1 35933U 09051C   26182.00550198  .00000881  00000+0  18662-3 0  9997
2 35933  98.3952  89.7404 0005167 169.6659 190.4649 14.61742388891201
ITUPSAT1                
1 35935U 09051E   26182.00849896  .00000807  00000+0  17649-3 0  9997
2 35935  98.4036  88.9208 0007044 186.0225 174.0891 14.60460825890756
TISAT 1                 
1 36799U 10035E   26182.09506544  .00024088  00000+0  77502-3 0  9990
2 36799  98.0709 129.8832 0003233 144.7314 215.4140 15.32235292869832
AEROCUBE 4.5A           
1 38767U 12048K   26180.81601320  .02026816  74244-5  11805-2 0  9992
2 38767  64.6148 340.0554 0018867 267.4936  92.4076 16.17962819374686
STRAND-1                
1 39090U 13009E   26182.04995426  .00000329  00000+0  12494-3 0  9998
2 39090  98.3925   1.9433 0008529 181.4171 178.6994 14.37171787699055
BRITE-AUSTRIA           
1 39091U 13009F   26182.06883088  .00000203  00000+0  83556-4 0  9990
2 39091  98.3999   1.1613 0009862 192.0720 168.0232 14.36547665699046
NEE-01 PEGASO           
1 39151U 13018B   26181.86443648  .00002902  00000+0  27950-3 0  9991
2 39151  98.1239 326.4679 0013673 117.3878 242.8734 14.93727352712749
POPACS 2                
1 39269U 13055E   26181.19306930  .00014049  00000+0  23497-3 0  9997
2 39269  80.9915 129.3032 0416257 152.0121 210.4183 14.91555130665156
POPACS 3                
1 39270U 13055F   26182.13566550  .00011699  00000+0  27629-3 0  9999
2 39270  80.9996 214.0621 0550645  27.5394 335.3850 14.56382311640589
ZACUBE-1 (TSHEPISOSAT)  
1 39417U 13066B   26182.13801652  .00003514  00000+0  27308-3 0  9990
2 39417  97.8043 144.5460 0042754 200.5627 159.3878 15.01264192682823
WNISAT-1                
1 39423U 13066H   26182.14215895  .00001388  00000+0  25995-3 0  9993
2 39423  97.7218 330.3090 0162871 187.4567 172.4210 14.58091867668767
TRITON-1                
1 39427U 13066M   26182.13942182  .00001500  00000+0  18431-3 0  9995
2 39427  97.8243  91.6292 0089389 187.8724 172.1092 14.81750144676155
GOMX-1                  
1 39430U 13066Q   26182.14481016  .00001575  00000+0  24118-3 0  9995
2 39430  97.6470  21.7265 0129503  33.1982 327.7266 14.69505946671964
CUBEBUG-2 (LO-74)       
1 39440U 13066AA  26181.79482018  .00004655  00000+0  43003-3 0  9995
2 39440  97.8910 130.8314 0056909 344.0423  15.9001 14.93871723679020
NEE-02 KRYSAOR          
1 39441U 13066AB  26181.80508646  .00002498  00000+0  27637-3 0  9992
2 39441  97.8896 120.9230 0066765  26.4051 334.0541 14.86680801678222
FUNCUBE-1 (AO-73)       
1 39444U 13066AE  26182.17547882  .00008294  00000+0  51101-3 0  9994
2 39444  97.8284 153.9150 0037168 153.3577 206.9572 15.09659489681770
UWE-3                   
1 39446U 13066AG  26182.11795867  .00003646  00000+0  31423-3 0  9999
2 39446  97.8711 138.2876 0047061 273.5839  86.0001 14.97129431679661
BRITE-CA1 (TORONTO)     
1 40020U 14033L   26182.17020014  .00001063  00000+0  16715-3 0  9993
2 40020  97.9757 310.8417 0077530 231.5053 127.9184 14.72699830644271
DUCHIFAT-1              
1 40021U 14033M   26182.14346753  .00168213  00000+0  15174-2 0  9990
2 40021  98.0443 243.2952 0000268 112.8439 247.2848 15.67620860657934
NANOSATC-BR1            
1 40024U 14033Q   26182.05536303  .00022675  00000+0  73726-3 0  9994
2 40024  98.0713 215.6747 0005207 130.4085 229.7610 15.31903939656105
QB50P1                  
1 40025U 14033R   26181.98950830  .00010029  00000+0  48959-3 0  9991
2 40025  98.0957 194.1047 0009267 167.8824 192.2633 15.18468022655129
QB50P2                  
1 40032U 14033Y   26180.97746561  .00007152  00000+0  38307-3 0  9990
2 40032  98.0748 178.6550 0009096 125.6149 234.5930 15.15322126654606
PERSEUS-M2              
1 40037U 14033AD  26182.18052443  .00000814  00000+0  78860-4 0  9996
2 40037  97.9970 133.0075 0010320 253.2082 106.8006 14.95549188652877
