OBJECT_NAME,OBJECT_ID,EPOCH,MEAN_MOTION,ECCENTRICITY,INCLINATION,RA_OF_ASC_NODE,ARG_OF_PERICENTER,MEAN_ANOMALY,EPHEMERIS_TYPE,CLASSIFICATION_TYPE,NORAD_CAT_ID,ELEMENT_SET_NO,REV_AT_EPOCH,BSTAR,MEAN_MOTION_DOT,MEAN_MOTION_DDOT
CUTE-1 (CO-55),2003-031E,2026-07-01T00:23:45.199104,14.24344253,.0010358,98.6736,190.4014,139.6861,220.5088,0,U,27844,999,19364,.15975E-3,.326E-5,0
CUBESAT XI-IV (CO-57),2003-031J,2026-07-01T00:17:07.885248,14.23628222,.0009846,98.6768,190.0986,157.0958,203.0662,0,U,27848,999,19334,.13985E-3,.275E-5,0
CUBESAT XI-V,2005-043F,2026-06-30T09:07:31.727712,14.72666866,.00145552,98.2997,337.2799,159.1785,201.0018,0,U,28895,999,10369,.23930319E-3,.1474E-4,0
CUTE-1.7+APD II (CO-65),2008-021C,2026-07-01T04:03:42.788736,15.09584995,.0008315,97.8277,163.8799,352.8809,7.2299,0,U,32785,999,98730,.4491E-3,.7155E-4,0
CANX-2,2008-021H,2026-06-30T21:53:14.555328,15.05711696,.001026,97.8633,161.9575,7.4385,352.6991,0,U,32790,999,98687,.27592E-3,.3929E-4,0
SEEDS II (CO-66),2008-021J,2026-06-30T23:22:16.171392,15.33219425,.0001255,97.7516,180.5337,192.0562,168.0649,0,U,32791,999,98940,.65942E-3,.21117E-3,0
SWISSCUBE,2009-051B,2026-07-01T03:01:00.704640,14.62508299,.0006978,98.4025,90.2564,158.3297,201.8200,0,U,35932,999,89119,.23153E-3,.1125E-4,0
BEESAT-1,2009-051C,2026-07-01T00:07:55.371072,14.61742388,.0005167,98.3952,89.7404,169.6659,190.4649,0,U,35933,999,89120,.18662E-3,.881E-5,0
ITUPSAT1,2009-051E,2026-07-01T00:12:14.310144,14.60460825,.0007044,98.4036,88.9208,186.0225,174.0891,0,U,35935,999,89075,.17649E-3,.807E-5,0
TISAT 1,2010-035E,2026-07-01T02:16:53.654016,15.32235292,.0003233,98.0709,129.8832,144.7314,215.4140,0,U,36799,999,86983,.77502E-3,.24088E-3,0
AEROCUBE 4.5A,2012-048K,2026-06-29T19:35:03.540480,16.17962819,.00188678,64.6148,340.0554,267.4936,92.4076,0,U,38767,999,37468,.11805476E-2,.2026816E-1,.7424434E-5
STRAND-1,2013-009E,2026-07-01T01:11:56.048064,14.37171787,.0008529,98.3925,1.9433,181.4171,178.6994,0,U,39090,999,69905,.12494E-3,.329E-5,0
BRITE-AUSTRIA,2013-009F,2026-07-01T01:39:06.988032,14.36547665,.0009862,98.3999,1.1613,192.0720,168.0232,0,U,39091,999,69904,.83556E-4,.203E-5,0
NEE-01 PEGASO,2013-018B,2026-06-30T20:44:47.311872,14.93727352,.0013673,98.1239,326.4679,117.3878,242.8734,0,U,39151,999,71274,.2795E-3,.2902E-4,0
POPACS 2,2013-055E,2026-06-30T04:38:01.187520,14.91555130,.04162574,80.9915,129.3032,152.0121,210.4183,0,U,39269,999,66515,.23496664E-3,.14049E-3,0
POPACS 3,2013-055F,2026-07-01T03:15:21.499200,14.56382311,.0550645,80.9996,214.0621,27.5394,335.3850,0,U,39270,999,64058,.27629E-3,.11699E-3,0
ZACUBE-1 (TSHEPISOSAT),2013-066B,2026-07-01T03:18:44.627328,15.01264192,.0042754,97.8043,144.5460,200.5627,159.3878,0,U,39417,999,68282,.27308E-3,.3514E-4,0
WNISAT-1,2013-066H,2026-07-01T03:24:42.533280,14.58091867,.0162871,97.7218,330.3090,187.4567,172.4210,0,U,39423,999,66876,.25995E-3,.1388E-4,0
TRITON-1,2013-066M,2026-07-01T03:20:46.045248,14.81750144,.0089389,97.8243,91.6292,187.8724,172.1092,0,U,39427,999,67615,.18431E-3,.15E-4,0
GOMX-1,2013-066Q,2026-07-01T03:28:31.597824,14.69505946,.0129503,97.6470,21.7265,33.1982,327.7266,0,U,39430,999,67196,.24118E-3,.1575E-4,0
CUBEBUG-2 (LO-74),2013-066AA,2026-06-30T19:04:32.463552,14.93871723,.00569094,97.8910,130.8314,344.0423,15.9001,0,U,39440,999,67902,.43003152E-3,.4655E-4,0
NEE-02 KRYSAOR,2013-066AB,2026-06-30T19:19:19.470144,14.86680801,.00667657,97.8896,120.9230,26.4051,334.0541,0,U,39441,999,67822,.27637444E-3,.2498E-4,0
FUNCUBE-1 (AO-73),2013-066AE,2026-07-01T04:12:41.370048,15.09659489,.0037168,97.8284,153.9150,153.3577,206.9572,0,U,39444,999,68177,.51101E-3,.8294E-4,0
UWE-3,2013-066AG,2026-07-01T02:49:51.629088,14.97129431,.0047061,97.8711,138.2876,273.5839,86.0001,0,U,39446,999,67966,.31423E-3,.3646E-4,0
BRITE-CA1 (TORONTO),2014-033L,2026-07-01T04:05:05.292096,14.72699830,.007753,97.9757,310.8417,231.5053,127.9184,0,U,40020,999,64427,.16715E-3,.1063E-4,0
DUCHIFAT-1,2014-033M,2026-07-01T03:26:35.594592,15.67620860,.0000268,98.0443,243.2952,112.8439,247.2848,0,U,40021,999,65793,.15174E-2,.168213E-2,0
NANOSATC-BR1,2014-033Q,2026-07-01T01:19:43.365792,15.31903939,.0005207,98.0713,215.6747,130.4085,229.7610,0,U,40024,999,65610,.73726E-3,.22675E-3,0
QB50P1,2014-033R,2026-06-30T23:44:53.517120,15.18468022,.0009267,98.0957,194.1047,167.8824,192.2633,0,U,40025,999,65512,.48959E-3,.10029E-3,0
QB50P2,2014-033Y,2026-06-29T23:27:33.028704,15.15322126,.00090963,98.0748,178.6550,125.6149,234.5930,0,U,40032,999,65460,.3830701E-3,.7152E-4,0
PERSEUS-M2,2014-033AD,2026-07-01T04:19:57.310752,14.95549188,.001032,97.9970,133.0075,253.2082,106.8006,0,U,40037,999,65287,.7886E-4,.814E-5,0
